BEIDOU-3 M3 (C21)       
1 43208U 18018B   25035.51095689 -.00000032  00000+0  00000+0 0  9997
2 43208  56.2130  79.6194 0008909 309.2633  50.7223  1.86231051 47472
BEIDOU-3 M9 (C29)       
1 43245U 18029A   25035.19315571 -.00000079  00000+0  00000+0 0  9990
2 43245  54.6342 317.3061 0001473 313.4199  46.5990  1.86232269 46620
BEIDOU-3 M10 (C30)      
1 43246U 18029B   25036.19716869 -.00000084  00000+0  00000+0 0  9993
2 43246  54.6309 317.2988 0004932   4.2570 355.7756  1.86228757 46624
BEIDOU-2 IGSO-7 (C16)   
1 43539U 18057A   25036.79553809 -.00000118  00000+0  00000+0 0  9996
2 43539  55.1601 167.3648 0083809 234.3530 131.0639  1.00296493 24156
BEIDOU-3 M5 (C23)       
1 43581U 18062A   25036.42288490  .00000091  00000+0  00000+0 0  9999
2 43581  54.1118 199.1939 0001368 338.3849  21.5837  1.86228418 44385
BEIDOU-3 M6 (C24)       
1 43582U 18062B   25035.75055092  .00000094  00000+0  00000+0 0  9998
2 43582  54.1114 199.2060 0006894  45.5510 314.4791  1.86229266 44373
BEIDOU-3 M12 (C26)      
1 43602U 18067A   25035.68514293  .00000093  00000+0  00000+0 0  9990
2 43602  54.2036 197.9111 0008451  37.2604 322.7706  1.86227676 43858
BEIDOU-3 M11 (C25)      
1 43603U 18067B   25036.89273914  .00000085  00000+0  00000+0 0  9998
2 43603  54.2009 197.8348 0004988  33.7986 326.2060  1.86227150 43900
BEIDOU-3 M13 (C32)      
1 43622U 18072A   25036.31598116 -.00000036  00000+0  00000+0 0  9993
2 43622  56.1863  79.1133 0008151 296.2564  63.7224  1.86230978 43400
BEIDOU-3 M14 (C33)      
1 43623U 18072B   25036.18145876 -.00000036  00000+0  00000+0 0  9990
2 43623  56.1881  79.1112 0005446 316.6076  43.4124  1.86230957 43396
BEIDOU-3 M16 (C35)      
1 43647U 18078A   25035.26857790 -.00000079  00000+0  00000+0 0  9992
2 43647  54.5307 317.3828 0008005  16.1299 343.9262  1.86232150 42882
BEIDOU-3 M15 (C34)      
1 43648U 18078B   25035.93472601 -.00000083  00000+0  00000+0 0  9996
2 43648  54.5259 317.3616 0004869  19.5363 340.5114  1.86231977 42916
BEIDOU-3 G1 (C59)       
1 43683U 18085A   25036.71160712 -.00000279  00000+0  00000+0 0  9994
2 43683   2.7738 101.7091 0001186  10.8884  59.7390  1.00271691 23080
BEIDOU-3 M17 (C36)      
1 43706U 18093A   25036.62517567  .00000089  00000+0  00000+0 0  9991
2 43706  54.1948 199.1427 0006177 295.9614  63.9493  1.86228110 42293
BEIDOU-3 M18 (C37)      
1 43707U 18093B   25036.48861289  .00000090  00000+0  00000+0 0  9991
2 43707  54.1959 199.1390 0005736 341.3062  18.6470  1.86229592 42284
BEIDOU-3 IGSO-1 (C38)   
1 44204U 19023A   25036.40927897 -.00000202  00000+0  00000+0 0  9994
2 44204  57.9874  42.7842 0023083 226.5378 133.0294  1.00284081  2224
BEIDOU-2 G8 (C01)       
1 44231U 19027A   25036.74766976 -.00000248  00000+0  00000+0 0  9994
2 44231   2.0596  74.9005 0005051 211.7654 263.0528  1.00275253 21105
BEIDOU-3 IGSO-2 (C39)   
1 44337U 19035A   25036.79727509 -.00000131  00000+0  00000+0 0  9995
2 44337  55.2004 163.2198 0036146 199.2944 178.6320  1.00266387 20694
BEIDOU-3 M24 (C46)      
1 44542U 19061A   25036.02199439  .00000094  00000+0  00000+0 0  9990
2 44542  54.4226 199.4957 0008627  19.2128 340.7942  1.86228971 36534
BEIDOU-3 M23 (C45)      
1 44543U 19061B   25035.88432111  .00000095  00000+0  00000+0 0  9992
2 44543  54.4214 199.4688 0005208  17.9296 162.4224  1.86229054 36531
BEIDOU-3 IGSO-3 (C40)   
1 44709U 19073A   25036.08676295 -.00000178  00000+0  00000+0 0  9998
2 44709  55.6502 286.2504 0041144 182.9901 177.0662  1.00285963 19474
BEIDOU-3 M22 (C44)      
1 44793U 19078A   25035.86580536 -.00000083  00000+0  00000+0 0  9998
2 44793  54.3774 317.2656 0006856  21.1427 338.9148  1.86231812 35388
BEIDOU-3 M21 (C43)      
1 44794U 19078B   25035.99623068 -.00000083  00000+0  00000+0 0  9991
2 44794  54.3507 317.2320 0004999  12.1932 347.8478  1.86227568 35397
BEIDOU-3 M19 (C41)      
1 44864U 19090A   25036.34311595 -.00000037  00000+0  00000+0 0  9991
2 44864  56.1206  79.2703 0019548 283.2021 141.9196  1.86231271 34987
BEIDOU-3 M20 (C42)      
1 44865U 19090B   25035.10197117 -.00000029  00000+0  00000+0 0  9998
2 44865  56.1209  79.3455 0016957 294.6075 108.0775  1.86231231 34941
BEIDOU-3 G2 (C60)       
1 45344U 20017A   25036.12824431 -.00000140  00000+0  00000+0 0  9995
2 45344   2.6493  37.3167 0003217 278.0789 306.3045  1.00272293 18272
BEIDOU-3 G3 (C61)       
1 45807U 20040A   25036.88329259 -.00000354  00000+0  00000+0 0  9993
2 45807   1.2552  60.1112 0003175 305.8092 198.7731  1.00275962 17090
BEIDOU-3 G4 (C62)       
1 56564U 23066A   25036.71560362 -.00000109  00000+0  00000+0 0  9998
2 56564   1.5431 289.7638 0002128 260.0005   3.9556  1.00271818  6418
BEIDOU-3 M28 (C50)      
1 58654U 23207A   25036.61511660 -.00000039  00000+0  00000+0 0  9995
2 58654  55.3074  79.1149 0004307 280.9265  79.0867  1.86231937  7599
BEIDOU-3 M26 (C48)      
1 58655U 23207B   25036.41465290 -.00000039  00000+0  00000+0 0  9991
2 58655  55.3094  79.1078 0005279 267.4794  92.5220  1.86231350  7579
CUTE-1 (CO-55)          
1 27844U 03031E   25036.93668188  .00000887  00000+0  40696-3 0  9997
2 27844  98.6788  46.8018 0009633 180.0502 180.0677 14.23806097121077
CUBESAT XI-IV (CO-57)   
1 27848U 03031J   25036.96894560  .00000745  00000+0  34912-3 0  9996
2 27848  98.6815  46.9304 0009217 196.9932 163.0939 14.23168692120783
CUBESAT XI-V            
1 28895U 05043F   25036.82367697  .00003870  00000+0  65127-3 0  9999
2 28895  98.2277 179.8462 0014574 342.5950  17.4754 14.70097668 28753
CUTE-1.7+APD II (CO-65) 
1 32785U 08021C   25036.87477241  .00010212  00000+0  78215-3 0  9993
2 32785  97.7663   7.4357 0008740 273.9836  86.0389 15.02026963910499
AAUSAT-II               
1 32788U 08021F   25036.93869574  .00105241  00000+0  21199-2 0  9992
2 32788  97.6059  28.1961 0007465  86.9949 273.2154 15.46158773914049
CANX-2                  
1 32790U 08021H   25036.43041105  .00007938  00000+0  64658-3 0  9994
2 32790  97.7965   5.5486 0010932 270.0865  89.9106 14.99734486910195
SEEDS II (CO-66)        
1 32791U 08021J   25036.91439752  .00021829  00000+0  12170-2 0  9993
2 32791  97.7169  14.7239 0002916 196.9421 163.1713 15.13597273911836
SWISSCUBE               
1 35932U 09051B   25036.74510688  .00002859  00000+0  59614-3 0  9993
2 35932  98.4446 290.6112 0006371 325.7536  34.3252 14.60737603816638
BEESAT-1                
1 35933U 09051C   25036.74156228  .00002377  00000+0  50271-3 0  9995
2 35933  98.4379 291.1751 0005071 343.0666  17.0364 14.60240024816696
ITUPSAT1                
1 35935U 09051E   25036.65797110  .00002203  00000+0  47853-3 0  9998
2 35935  98.4470 290.7278 0007466 347.3060  12.7950 14.59078488816294
TISAT 1                 
1 36799U 10035E   25036.24427904  .00017711  00000+0  10411-2 0  9996
2 36799  98.0668 302.9547 0004560 137.3008 222.8576 15.11741727792152
AEROCUBE 4.5A           
1 38767U 12048K   25036.94364420  .00031598  00000+0  10775-2 0  9991
2 38767  64.6504 275.0253 0107330 307.2597  51.8777 15.24806275295910
AEROCUBE 4.5B           
1 38768U 12048L   25036.85077865  .00289155  00000+0  17578-2 0  9998
2 38768  64.6350 169.4182 0048802 299.2970  60.3310 15.74734759297473
STRAND-1                
1 39090U 13009E   25036.57255779  .00000919  00000+0  32671-3 0  9997
2 39090  98.3788 224.5324 0007742 276.6901  83.3404 14.36623094625743
BRITE-AUSTRIA           
1 39091U 13009F   25036.74556711  .00000591  00000+0  21728-3 0  9994
2 39091  98.3842 223.9698 0009197 284.3289  75.6876 14.36178483625781
NEE-01 PEGASO           
1 39151U 13018B   25036.76664840  .00006535  00000+0  69318-3 0  9997
2 39151  98.0541 163.1114 0013858   0.7790 359.3446 14.89356875636693
ESTCUBE 1               
1 39161U 13021C   25036.90420534  .00004160  00000+0  57172-3 0  9995
2 39161  97.7987 102.2663 0008518 183.9197 176.1949 14.78830811631647
POPACS 1                
1 39268U 13055D   25036.81128255  .00059746 -17099-6  70820-3 0  9994
2 39268  80.9754 237.3913 0303790  44.8844 317.6520 15.21355136595707
POPACS 2                
1 39269U 13055E   25036.82003945  .00034550  00000+0  71959-3 0  9990
2 39269  81.0004 343.4389 0500004 324.1582  32.6995 14.69675112589752
POPACS 3                
1 39270U 13055F   25036.43550200  .00010927  00000+0  28195-3 0  9996
2 39270  81.0049  43.1810 0600238 130.6848 234.8129 14.44074617566544
ZACUBE-1 (TSHEPISOSAT)  
1 39417U 13066B   25036.62065592  .00009401  00000+0  85844-3 0  9996
2 39417  97.7646 354.5946 0048228 105.3040 255.3517 14.94373799606385
WNISAT-1                
1 39423U 13066H   25036.76053834  .00001576  00000+0  30203-3 0  9998
2 39423  97.6677 218.3396 0166763 355.5789   4.3928 14.56552864594424
TRITON-1                
1 39427U 13066M   25036.95876306  .00006951  00000+0  90283-3 0  9996
2 39427  97.8407 313.9506 0098204  48.0024 312.9498 14.77653428600885
DELFI-N3XT              
1 39428U 13066N   25036.48102718  .00013035  00000+0  14147-2 0  9999
2 39428  97.8368 315.7692 0091374  49.2145 311.6953 14.85214624600631
GOMX-1                  
1 39430U 13066Q   25036.84718918  .00004861  00000+0  77201-3 0  9995
2 39430  97.7006 263.0399 0133311 227.9083 131.0725 14.66726618597080
CUBEBUG-2 (LO-74)       
1 39440U 13066AA  25036.56635189  .00007142  00000+0  75558-3 0  9991
2 39440  97.8369 342.2473 0062960 227.7868 131.7995 14.88020095602989
NEE-02 KRYSAOR          
1 39441U 13066AB  25036.77733046  .00005507  00000+0  65353-3 0  9991
2 39441  97.8448 337.1550 0068719 254.5430 104.8187 14.83196358602523
FUNCUBE-1 (AO-73)       
1 39444U 13066AE  25036.61080435  .00012935  00000+0  10511-2 0  9992
2 39444  97.7487 358.5814 0043526  82.2134 278.4028 14.98975357604999
UWE-3                   
1 39446U 13066AG  25036.66946156  .00007750  00000+0  76903-3 0  9997
2 39446  97.8094 348.5628 0055788 167.7862 192.4723 14.90861246603436
